STARLINK-31468          
1 58998C 24036A   26180.49423611  .00006050  00000+0  20374-3 0  1802
2 58998  53.1589 278.5307 0001132  98.3845 313.3315 15.30214822    16
STARLINK-31440          
1 58999C 24036B   26180.49770833 -.00165680  00000+0 -55808-2 0  1800
2 58999  53.1588 278.5291 0001535  87.2661 331.9791 15.30291955    14
STARLINK-31529          
1 59000C 24036C   26180.47201389 -.00074720  00000+0 -25177-2 0  1807
2 59000  53.1590 276.7163 0001133  94.6544  86.9884 15.30237777    17
STARLINK-31431          
1 59002C 24036E   26180.55673611 -.00096186  00000+0 -32426-2 0  1804
2 59002  53.1605 278.7392 0001326  81.7314  58.5584 15.30231490    16
STARLINK-31435          
1 59004C 24036G   26180.52548611 -.00103870  00000+0 -35010-2 0  1805
2 59004  53.1586 278.4104 0001069  84.5379 121.9911 15.30242536    12
STARLINK-31484          
1 59005C 24036H   26180.54979167 -.00120750  00000+0 -40696-2 0  1804
2 59005  53.1585 278.3321 0001154  85.6371 237.4128 15.30252078    16
STARLINK-31450          
1 59006C 24036J   26180.50743056 -.00114760  00000+0 -38668-2 0  1807
2 59006  53.1584 278.6083 0001029  94.6067 314.2303 15.30257774    14
STARLINK-31456          
1 59007C 24036K   26180.55256944 -.00001569  00000+0 -52943-4 0  1804
2 59007  53.1584 278.3530 0001352  81.5582 239.4227 15.30157797    12
STARLINK-31460          
1 59008C 24036L   26180.50465278 -.00058486  00000+0 -19709-2 0  1803
2 59008  53.1604 278.9000 0001225  78.3102 175.5972 15.30225740    16
STARLINK-31488          
1 59009C 24036M   26180.55951389 -.00149690  00000+0 -50429-2 0  1804
2 59009  53.1585 278.2745 0001244 106.1428 276.2696 15.30279998    12
STARLINK-31528          
1 59010C 24036N   26180.51368056 -.00104930  00000+0 -35368-2 0  1808
2 59010  53.1595 279.0879 0001197  90.3135  97.0543 15.30241372    13
STARLINK-31491          
1 59011C 24036P   26180.49493056 -.00073866  00000+0 -24887-2 0  1802
2 59011  53.1593 279.1808 0001028  81.5162 356.6647 15.30239568    13
STARLINK-31465          
1 59012C 24036Q   26180.48034722 -.00087775  00000+0 -29566-2 0  1806
2 59012  53.1600 279.1905 0001202  87.9345 298.9504 15.30254125    14
STARLINK-31389          
1 59013C 24036R   26180.47409722 -.00101600  00000+0 -34235-2 0  1805
2 59013  53.1597 279.2535 0001278  86.4107 248.5900 15.30251781    19
STARLINK-31454          
1 59014C 24036S   26180.50812500 -.00108200  00000+0 -36467-2 0  1804
2 59014  53.1602 279.0269 0001278  83.3350 114.1256 15.30245125    12
STARLINK-31521          
1 59015C 24036T   26180.46784722 -.00104540  00000+0 -35225-2 0  1808
2 59015  53.1603 279.2020 0001189  88.5323 252.7355 15.30253019    19
STARLINK-31526          
1 59016C 24036U   26180.52409722 -.00080561  00000+0 -25902-2 0  1807
2 59016  53.1581 252.7196 0000680  85.3086 155.7026 15.31748401    13
STARLINK-31406          
1 59017C 24036V   26180.48451389 -.00113010  00000+0 -33395-2 0  1800
2 59017  53.1588 263.7545 0001220  81.4352 231.4438 15.34441538    18
STARLINK-31527          
1 59018C 24036W   26180.48798611 -.00112560  00000+0 -37934-2 0  1805
2 59018  53.1603 279.0128 0001304  82.9322  61.6809 15.30250746    10
STARLINK-31436          
1 59019C 24036X   26180.48798611 -.00103900  00000+0 -35013-2 0  1800
2 59019  53.1592 279.2214 0001023  85.4494 308.6526 15.30249999    10
STARLINK-30996          
1 59023C 24038A   26180.56229167 -.00011598  00000+0 -42079-3 0  1803
2 59023  43.0034 115.2574 0001468 264.1780 225.2840 15.27528237    13
STARLINK-31006          
1 59024C 24038B   26180.57756944  .00055990  00000+0  20278-2 0  1801
2 59024  43.0021  64.7276 0001436 260.7020  58.4845 15.27553081    17
STARLINK-31178          
1 59025C 24038C   26180.47826389 -.00020186  00000+0 -73169-3 0  1801
2 59025  43.0028 115.8659 0001520 272.9921  57.0949 15.27563177    14
STARLINK-30863          
1 59027C 24038E   26180.53451389 -.00021965  00000+0 -79556-3 0  1806
2 59027  42.9999 115.8200 0001388 261.9698 257.4771 15.27590653    12
STARLINK-31206          
1 59028C 24038F   26180.54354167  .00054516  00000+0  19736-2 0  1803
2 59028  43.0032  50.3270 0001434 263.6990  55.8124 15.27567716    15
STARLINK-31224          
1 59029C 24038G   26180.54006944 -.00016663  00000+0 -60370-3 0  1805
2 59029  43.0005 115.1431 0001451 266.0016 199.9608 15.27577436    17
STARLINK-31186          
1 59030C 24038H   26180.53034722 -.00025187  00000+0 -91232-3 0  1803
2 59030  43.0026 115.6200 0001487 268.6042 326.9738 15.27588354    14
STARLINK-31211          
1 59031C 24038J   26180.52131944 -.00022070  00000+0 -79896-3 0  1807
2 59031  42.9999 115.1805 0001042 289.2455 101.7056 15.27607162    13
STARLINK-30862          
1 59032C 24038K   26180.55118056 -.00005080  00000+0 -18414-3 0  1801
2 59032  43.0021 104.4431 0001629 270.5963  22.9840 15.27553673    18
STARLINK-31210          
1 59033C 24038L   26180.52895833 -.00023628  00000+0 -85571-3 0  1800
2 59033  43.0029 112.0371 0001536 267.1249  21.7749 15.27594063    14
STARLINK-31231          
1 59034C 24038M   26180.55534722 -.00009423  00000+0 -34133-3 0  1806
2 59034  43.0032 111.8364 0001494 266.0021 189.4206 15.27578539    17
STARLINK-31207          
1 59035C 24038N   26180.56854167 -.00007129  00000+0 -25826-3 0  1806
2 59035  43.0032 111.7116 0001432 268.1932 281.1130 15.27576353    16
STARLINK-31217          
1 59036C 24038P   26180.52270833  .00048308  00000+0  17491-2 0  1805
2 59036  43.0025  17.6438 0001430 265.7802 100.1868 15.27565256    15
STARLINK-31208          
1 59037C 24038Q   26180.57618056 -.00008556  00000+0 -30992-3 0  1809
2 59037  43.0001 115.6161 0001433 267.2586 100.4126 15.27580288    13
STARLINK-31235          
1 59038C 24038R   26180.49215278 -.00020246  00000+0 -73342-3 0  1806
2 59038  43.0032 112.1082 0001531 265.3597 237.5028 15.27583912    12
STARLINK-31220          
1 59039C 24038S   26180.57479167 -.00010174  00000+0 -36874-3 0  1803
2 59039  43.0027 115.1160 0001429 270.4457 316.0243 15.27561103    15
STARLINK-31225          
1 59040C 24038T   26180.49770833 -.00027155  00000+0 -98382-3 0  1809
2 59040  43.0019 111.8540 0001454 268.0914 343.2247 15.27583060    14
STARLINK-31240          
1 59041C 24038U   26180.49215278 -.00020396  00000+0 -73881-3 0  1804
2 59041  43.0004 112.4303 0001475 270.3754  98.0777 15.27584969    16
STARLINK-31202          
1 59042C 24038V   26180.55812500 -.00003074  00000+0 -10608-3 0  1805
2 59042  43.0027 110.9593 0004364 237.4701 238.0597 15.29144804    10
STARLINK-31234          
1 59043C 24038W   26180.55534722 -.00010629  00000+0 -38492-3 0  1808
2 59043  43.0015 111.9877 0001490 265.5909 126.1647 15.27588132    10
STARLINK-31153          
1 59044C 24038X   26180.49909722 -.00024762  00000+0 -89688-3 0  1804
2 59044  43.0033 112.0181 0001438 267.5340 294.7893 15.27591316    17
STARLINK-31241          
1 59045C 24038Y   26180.47062500 -.00020985  00000+0 -76013-3 0  1808
2 59045  43.0007 112.5165 0001372 268.5780 355.4933 15.27587465    12
STARLINK-31205          
1 59046C 24038Z   26180.56854167 -.00005901  00000+0 -21375-3 0  1809
2 59046  43.0025 111.8616 0001477 262.5080 223.1125 15.27580232    18
STARLINK-31265          
1 59074C 24041A   26180.50048611  .00049752  00000+0  18018-2 0  1806
2 59074  43.0028  39.2658 0001371 259.5349  20.5232 15.27557553    16
STARLINK-31276          
1 59075C 24041B   26180.56576389  .00046728  00000+0  16922-2 0  1803
2 59075  43.0011  38.4786 0001701 269.1574 187.1659 15.27559350    16
STARLINK-31259          
1 59076C 24041C   26180.54909722  .00054492  00000+0  19735-2 0  1805
2 59076  43.0000  38.6226 0001605 261.5869  81.7613 15.27554330    14
STARLINK-31281          
1 59077C 24041D   26180.57270833  .00045295  00000+0  16405-2 0  1805
2 59077  43.0001  38.5410 0001787 264.9102 187.2173 15.27557013    12
STARLINK-31274          
1 59078C 24041E   26180.49423611  .00045002  00000+0  16301-2 0  1802
2 59078  43.0033  39.3663 0001443 260.5915 316.7730 15.27553279    18
STARLINK-31257          
1 59079C 24041F   26180.56090278  .00070361  00000+0  25503-2 0  1800
2 59079  43.0009  38.7735 0001440 261.2591  55.0639 15.27520057    19
STARLINK-31292          
1 59081C 24041H   26180.52895833  .00044319  00000+0  16051-2 0  1801
2 59081  43.0002  38.8369 0001580 268.6859 281.3417 15.27558297    17
STARLINK-31286          
1 59082C 24041J   26180.52340278  .00045195  00000+0  16367-2 0  1803
2 59082  43.0002  38.9198 0001500 262.8104 235.4205 15.27560539    17
STARLINK-31252          
1 59083C 24041K   26180.49354167 -.00023646  00000+0 -85624-3 0  1804
2 59083  43.0032 316.1119 0001376 268.8054  98.7493 15.27598028    19
STARLINK-31261          
1 59084C 24041L   26180.47548611  .00045065  00000+0  16324-2 0  1809
2 59084  43.0034  39.5553 0001578 262.6007 176.1708 15.27553251    13
STARLINK-31290          
1 59085C 24041M   26180.49909722  .00048697  00000+0  17627-2 0  1807
2 59085  43.0033  24.9971 0001573 232.9892 219.7588 15.27573984    17
STARLINK-31279          
1 59086C 24041N   26180.52965278  .00053589  00000+0  19412-2 0  1800
2 59086  43.0037  39.4349 0001395 265.1071  34.0669 15.27548242    18
STARLINK-31266          
1 59087C 24041P   26180.50395833  .00053883  00000+0  19520-2 0  1800
2 59087  43.0008  39.0789 0001366 260.0244 109.9265 15.27545695    18
STARLINK-31313          
1 59088C 24041Q   26180.55326389  .00050911  00000+0  18439-2 0  1803
2 59088  43.0012  38.8334 0001444 260.9246   6.3332 15.27554997    15
STARLINK-31307          
1 59089C 24041R   26180.50673611  .00052719  00000+0  19093-2 0  1807
2 59089  43.0006  39.0493 0001467 262.4871 129.8346 15.27555501    12
STARLINK-31316          
1 59090C 24041S   26180.56506944 -.00015352  00000+0 -55587-3 0  1802
2 59090  43.0010 352.0769 0001463 262.8110  71.7534 15.27595907    17
